*******************************************************************************
Ephemeris / WWW_USER Fri Mar  7 10:58:11 2025 Pasadena, USA      / Horizons    
*******************************************************************************
Target body name: (2018 TZ5)                      {source: JPL#13}
Center body name: Earth (399)                     {source: DE441}
Center-site name: Mauna Kea
*******************************************************************************
Start time      : A.D. 2018-Nov-15 03:52:00.0000 UT      
Stop  time      : A.D. 2018-Nov-15 16:20:00.0000 UT      
Step-size       : 1 minutes
*******************************************************************************
Target pole/equ : undefined
Target radii    : undefined                                                    
Center geodetic : 204.5278, 19.8260847, 4.21024   {E-lon(deg),Lat(deg),Alt(km)}
Center cylindric: 204.5278, 6006.35451, 2151.0229 {E-lon(deg),Dxy(km),Dz(km)}
Center pole/equ : ITRF93                          {East-longitude positive}
Center radii    : 6378.137, 6378.137, 6356.752 km {Equator_a, b, pole_c}       
Target primary  : Sun
Vis. interferer : MOON (R_eq= 1737.400) km        {source: DE441}
Rel. light bend : Sun                             {source: DE441}
Rel. lght bnd GM: 1.3271E+11 km^3/s^2                                          
Small-body perts: Yes                             {source: SB441-N16}
Atmos refraction: NO (AIRLESS)
RA format       : HMS
Time format     : CAL 
Calendar mode   : Mixed Julian/Gregorian
RTS-only print  : NO       
EOP file        : eop.250306.p250602                                           
EOP coverage    : DATA-BASED 1962-JAN-20 TO 2025-MAR-06. PREDICTS-> 2025-JUN-01
Units conversion: 1 au= 149597870.700 km, c= 299792.458 km/s, 1 day= 86400.0 s 
Table cut-offs 1: Elevation (-90.0deg=NO ),Airmass (>38.000=NO), Daylight (YES)
Table cut-offs 2: Solar elongation (  0.0,180.0=NO ),Local Hour Angle( 0.0=NO )
Table cut-offs 3: RA/DEC angular rate (     0.0=NO )                           
*******************************************************************************
Initial IAU76/J2000 heliocentric ecliptic osculating elements (au, days, deg.):
  EPOCH=  2458421.5 ! 2018-Oct-30.00 (TDB)         Residual RMS= .3052         
   EC= .5505022016549632   QR= .8932716909804733   TP= 2458367.6074299323      
   OM= 132.9772150011661   W=  197.0626448515302   IN= 1.165364587967566       
  Equivalent ICRF heliocentric cartesian coordinates (au, au/d):
   X= 9.139681807821705E-01  Y= 6.232256283970929E-01  Z= 2.452583568287751E-01
  VX=-4.619682259947144E-03 VY= 1.729028462648113E-02 VZ= 7.287606215643615E-03
Asteroid physical parameters (km, seconds, rotational period in hours):        
   GM= n.a.                RAD= n.a.               ROTPER= n.a.                
   H= 24.4                 G= .150                 B-V= n.a.                   
                           ALBEDO= n.a.            STYP= n.a.                  
*******************************************************************************
 Date__(UT)__HR:MN     R.A._________(ICRF)_________DEC
******************************************************
$$SOE
 2018-Nov-15 07:58  m  02 30 25.487724 +09 16 27.80201
 2018-Nov-15 07:59  m  02 30 25.489109 +09 16 28.24805
 2018-Nov-15 08:00  m  02 30 25.490483 +09 16 28.69398
 2018-Nov-15 08:01  m  02 30 25.491844 +09 16 29.13982
 2018-Nov-15 08:02  m  02 30 25.493194 +09 16 29.58556
 2018-Nov-15 08:03  m  02 30 25.494532 +09 16 30.03120
 2018-Nov-15 08:04  m  02 30 25.495859 +09 16 30.47674
 2018-Nov-15 08:05  m  02 30 25.497175 +09 16 30.92218
 2018-Nov-15 08:06  m  02 30 25.498480 +09 16 31.36752
 2018-Nov-15 08:07  m  02 30 25.499774 +09 16 31.81276
 2018-Nov-15 08:08  m  02 30 25.501057 +09 16 32.25790
 2018-Nov-15 08:09  m  02 30 25.502330 +09 16 32.70294
 2018-Nov-15 08:10  m  02 30 25.503592 +09 16 33.14788
 2018-Nov-15 08:11  m  02 30 25.504844 +09 16 33.59272
 2018-Nov-15 08:12  m  02 30 25.506086 +09 16 34.03746
 2018-Nov-15 08:13  m  02 30 25.507319 +09 16 34.48210
 2018-Nov-15 08:14  m  02 30 25.508541 +09 16 34.92664
 2018-Nov-15 08:15  m  02 30 25.509755 +09 16 35.37108
 2018-Nov-15 08:16  m  02 30 25.510958 +09 16 35.81541
 2018-Nov-15 08:17  m  02 30 25.512153 +09 16 36.25965
 2018-Nov-15 08:18  m  02 30 25.513338 +09 16 36.70378
 2018-Nov-15 08:19  m  02 30 25.514515 +09 16 37.14782
 2018-Nov-15 08:20  m  02 30 25.515683 +09 16 37.59175
 2018-Nov-15 08:21  m  02 30 25.516842 +09 16 38.03558
 2018-Nov-15 08:22  m  02 30 25.517993 +09 16 38.47931
 2018-Nov-15 08:23  m  02 30 25.519136 +09 16 38.92294
 2018-Nov-15 08:24  m  02 30 25.520271 +09 16 39.36646
 2018-Nov-15 08:25  m  02 30 25.521397 +09 16 39.80989
 2018-Nov-15 08:26  m  02 30 25.522516 +09 16 40.25321
 2018-Nov-15 08:27  m  02 30 25.523628 +09 16 40.69643
 2018-Nov-15 08:28  m  02 30 25.524732 +09 16 41.13955
 2018-Nov-15 08:29  m  02 30 25.525829 +09 16 41.58256
 2018-Nov-15 08:30  m  02 30 25.526919 +09 16 42.02548
 2018-Nov-15 08:31  m  02 30 25.528002 +09 16 42.46829
 2018-Nov-15 08:32  m  02 30 25.529078 +09 16 42.91100
 2018-Nov-15 08:33  m  02 30 25.530148 +09 16 43.35361
 2018-Nov-15 08:34  m  02 30 25.531211 +09 16 43.79612
 2018-Nov-15 08:35  m  02 30 25.532268 +09 16 44.23852
 2018-Nov-15 08:36  m  02 30 25.533319 +09 16 44.68082
 2018-Nov-15 08:37  m  02 30 25.534364 +09 16 45.12302
 2018-Nov-15 08:38  m  02 30 25.535403 +09 16 45.56511
 2018-Nov-15 08:39  m  02 30 25.536437 +09 16 46.00710
 2018-Nov-15 08:40  m  02 30 25.537466 +09 16 46.44899
 2018-Nov-15 08:41  m  02 30 25.538489 +09 16 46.89078
 2018-Nov-15 08:42  m  02 30 25.539507 +09 16 47.33246
 2018-Nov-15 08:43  m  02 30 25.540520 +09 16 47.77405
 2018-Nov-15 08:44  m  02 30 25.541529 +09 16 48.21552
 2018-Nov-15 08:45  m  02 30 25.542532 +09 16 48.65690
 2018-Nov-15 08:46  m  02 30 25.543532 +09 16 49.09817
 2018-Nov-15 08:47  m  02 30 25.544527 +09 16 49.53934
 2018-Nov-15 08:48  m  02 30 25.545519 +09 16 49.98040
 2018-Nov-15 08:49  m  02 30 25.546506 +09 16 50.42137
 2018-Nov-15 08:50  m  02 30 25.547490 +09 16 50.86222
 2018-Nov-15 08:51  m  02 30 25.548470 +09 16 51.30298
 2018-Nov-15 08:52  m  02 30 25.549447 +09 16 51.74363
 2018-Nov-15 08:53  m  02 30 25.550420 +09 16 52.18418
 2018-Nov-15 08:54  m  02 30 25.551391 +09 16 52.62463
 2018-Nov-15 08:55  m  02 30 25.552358 +09 16 53.06497
 2018-Nov-15 08:56  m  02 30 25.553323 +09 16 53.50521
 2018-Nov-15 08:57  m  02 30 25.554285 +09 16 53.94534
 2018-Nov-15 08:58  m  02 30 25.555245 +09 16 54.38537
 2018-Nov-15 08:59  m  02 30 25.556203 +09 16 54.82530
 2018-Nov-15 09:00  m  02 30 25.557159 +09 16 55.26512
 2018-Nov-15 09:01  m  02 30 25.558113 +09 16 55.70485
 2018-Nov-15 09:02  m  02 30 25.559065 +09 16 56.14446
 2018-Nov-15 09:03  m  02 30 25.560016 +09 16 56.58398
 2018-Nov-15 09:04  m  02 30 25.560965 +09 16 57.02338
 2018-Nov-15 09:05  m  02 30 25.561913 +09 16 57.46269
 2018-Nov-15 09:06  m  02 30 25.562860 +09 16 57.90189
 2018-Nov-15 09:07  m  02 30 25.563806 +09 16 58.34099
 2018-Nov-15 09:08  m  02 30 25.564752 +09 16 58.77999
 2018-Nov-15 09:09  m  02 30 25.565697 +09 16 59.21888
 2018-Nov-15 09:10  m  02 30 25.566642 +09 16 59.65766
 2018-Nov-15 09:11  m  02 30 25.567586 +09 17 00.09635
 2018-Nov-15 09:12  m  02 30 25.568531 +09 17 00.53493
 2018-Nov-15 09:13  m  02 30 25.569476 +09 17 00.97340
 2018-Nov-15 09:14  m  02 30 25.570421 +09 17 01.41177
 2018-Nov-15 09:15  m  02 30 25.571366 +09 17 01.85004
 2018-Nov-15 09:16  t  02 30 25.572312 +09 17 02.28821
 2018-Nov-15 09:17  m  02 30 25.573259 +09 17 02.72627
 2018-Nov-15 09:18  m  02 30 25.574207 +09 17 03.16423
 2018-Nov-15 09:19  m  02 30 25.575156 +09 17 03.60208
 2018-Nov-15 09:20  m  02 30 25.576107 +09 17 04.03983
 2018-Nov-15 09:21  m  02 30 25.577059 +09 17 04.47747
 2018-Nov-15 09:22  m  02 30 25.578013 +09 17 04.91502
 2018-Nov-15 09:23  m  02 30 25.578968 +09 17 05.35245
 2018-Nov-15 09:24  m  02 30 25.579926 +09 17 05.78979
 2018-Nov-15 09:25  m  02 30 25.580886 +09 17 06.22702
 2018-Nov-15 09:26  m  02 30 25.581848 +09 17 06.66415
 2018-Nov-15 09:27  m  02 30 25.582813 +09 17 07.10117
 2018-Nov-15 09:28  m  02 30 25.583780 +09 17 07.53809
 2018-Nov-15 09:29  m  02 30 25.584750 +09 17 07.97491
 2018-Nov-15 09:30  m  02 30 25.585723 +09 17 08.41162
 2018-Nov-15 09:31  m  02 30 25.586700 +09 17 08.84823
 2018-Nov-15 09:32  m  02 30 25.587680 +09 17 09.28474
 2018-Nov-15 09:33  m  02 30 25.588663 +09 17 09.72114
 2018-Nov-15 09:34  m  02 30 25.589650 +09 17 10.15744
 2018-Nov-15 09:35  m  02 30 25.590641 +09 17 10.59364
 2018-Nov-15 09:36  m  02 30 25.591636 +09 17 11.02973
 2018-Nov-15 09:37  m  02 30 25.592635 +09 17 11.46572
 2018-Nov-15 09:38  m  02 30 25.593639 +09 17 11.90161
 2018-Nov-15 09:39  m  02 30 25.594647 +09 17 12.33739
 2018-Nov-15 09:40  m  02 30 25.595660 +09 17 12.77307
 2018-Nov-15 09:41  m  02 30 25.596677 +09 17 13.20865
 2018-Nov-15 09:42  m  02 30 25.597700 +09 17 13.64413
 2018-Nov-15 09:43  m  02 30 25.598728 +09 17 14.07950
 2018-Nov-15 09:44  m  02 30 25.599761 +09 17 14.51477
 2018-Nov-15 09:45  m  02 30 25.600800 +09 17 14.94993
 2018-Nov-15 09:46  m  02 30 25.601845 +09 17 15.38499
 2018-Nov-15 09:47  m  02 30 25.602895 +09 17 15.81995
 2018-Nov-15 09:48  m  02 30 25.603952 +09 17 16.25481
 2018-Nov-15 09:49  m  02 30 25.605014 +09 17 16.68957
 2018-Nov-15 09:50  m  02 30 25.606083 +09 17 17.12422
 2018-Nov-15 09:51  m  02 30 25.607159 +09 17 17.55877
 2018-Nov-15 09:52  m  02 30 25.608241 +09 17 17.99322
 2018-Nov-15 09:53  m  02 30 25.609331 +09 17 18.42756
 2018-Nov-15 09:54  m  02 30 25.610427 +09 17 18.86180
 2018-Nov-15 09:55  m  02 30 25.611530 +09 17 19.29594
 2018-Nov-15 09:56  m  02 30 25.612641 +09 17 19.72998
 2018-Nov-15 09:57  m  02 30 25.613760 +09 17 20.16392
 2018-Nov-15 09:58  m  02 30 25.614886 +09 17 20.59775
 2018-Nov-15 09:59  m  02 30 25.616020 +09 17 21.03149
 2018-Nov-15 10:00  m  02 30 25.617162 +09 17 21.46512
